GLOBALSTAR M084         
1 38040U 11080A   24219.57011831 -.00000067  00000+0  20268-3 0  9993
2 38040  52.0006 286.2862 0000740 108.3567  32.7010 12.62265249583216
GLOBALSTAR M080         
1 38041U 11080B   24219.70231035 -.00000072  00000+0  17750-3 0  9997
2 38041  52.0062 287.3800 0000722  87.2514  54.9863 12.62263575583076
GLOBALSTAR M082         
1 38042U 11080C   24219.63939729 -.00000092  00000+0  64609-4 0  9993
2 38042  52.0052 242.9834 0000562 197.5156 318.6772 12.62264852583774
GLOBALSTAR M092         
1 38043U 11080D   24219.67738008 -.00000077  00000+0  14691-3 0  9993
2 38043  52.0107 333.2266 0000831 110.5222 338.5442 12.62264674582234
GLOBALSTAR M090         
1 38044U 11080E   24219.58576332 -.00000097  00000+0  35199-4 0  9993
2 38044  51.9860 237.3605 0000270 189.1905 322.8494 12.62265843583881
GLOBALSTAR M086         
1 38045U 11080F   24219.77449579 -.00000099  00000+0  25872-4 0  9996
2 38045  51.9872 237.3114 0000781 349.5590 181.2800 12.62265208583859
GLOBALSTAR M097         
1 39072U 13005A   24219.84303402 -.00000101  00000+0  13290-4 0  9993
2 39072  52.0036 151.3316 0000398   7.9044 352.1829 12.62269118531112
GLOBALSTAR M093         
1 39073U 13005B   24219.89522522 -.00000087  00000+0  92062-4 0  9992
2 39073  51.9803 144.9748 0000479   0.3622 359.7245 12.62276512531075
